NAYIF-1 (EO-88)         
1 42017U 17008BX  20076.72032604  .00001171  00000-0  48025-4 0  9992
2 42017  97.3695 145.6074 0004606 295.7747  64.3016 15.26223172171403
MAX VALIER SAT          
1 42778U 17036P   20076.87152086  .00000681  00000-0  32373-4 0  9994
2 42778  97.3174 133.0161 0011849 356.4686   3.6465 15.22449176151649
RADFXSAT (FOX-1B)       
1 43017U 17073E   20076.76335584  .00000720  00000-0  61488-4 0  9999
2 43017  97.7258 352.5623 0257253 352.6850   7.0636 14.78838533125464
FOX-1D (AO-92)          
1 43137U 18004AC  20076.84170794  .00000782  00000-0  35277-4 0  9991
2 43137  97.4544 148.6012 0009869  30.7691 329.4123 15.23938230120949
ES'HAIL 2               
1 43700U 18090A   20076.88740764  .00000122  00000-0  00000-0 0  9996
2 43700   0.0086 179.9998 0002362 213.5422 126.6082  1.00271607  4782
FOX-1CLIFF (AO-95)      
1 43770U 18099N   20076.73957955  .00000521  00000-0  52886-4 0  9994
2 43770  97.7140 149.7032 0015650 142.6048 217.6264 14.94926495 70063
ITASAT 1                
1 43786U 18099AE  20076.75777984  .00000491  00000-0  49693-4 0  9993
2 43786  97.7157 150.0741 0016401 136.3924 223.8596 14.95276987 70082
JY1SAT (JO-97)          
1 43803U 18099AX  20076.91669390 -.00000165  00000-0 -96854-5 0  9994
2 43803  97.7115 150.0726 0016216 136.7802 223.4695 14.95439270 70107
PSAT2 (NO-104)          
1 44354U 19036R   20075.87641606  .00009529  00000-0  14077-3 0  9998
2 44354  28.5295 274.4235 0372051  32.8696 329.4468 15.01525929 39739
BRICSAT2 (NO-103)       
1 44355U 19036S   20076.63869101  .00016604  00000-0  24064-3 0  9995
2 44355  28.5290 265.0196 0357471  48.1660 314.8887 15.05191624 39892
JAISAT-1                
1 44419U 19038F   20076.88138525  .00000739  00000-0  45797-4 0  9993
2 44419  97.5277  39.6346 0023351  89.6655 270.7251 15.12618132 38606
DUCHIFAT-3              
1 44854U 19089C   20076.90720146  .00000230  00000-0  25045-4 0  9991
2 44854  36.9679 285.2569 0008145  20.6855 339.4234 14.98993914 14402
HUSKYSAT-1              
1 45119U 19071J   20076.46257098  .00001198  00000-0  48322-4 0  9996
2 45119  51.6437  92.5559 0012935  79.0222 281.2214 15.33221840  6853
